[{"OBJECT_NAME":"STARLINK-33693","OBJECT_ID":"2025-065L","EPOCH":"2026-03-09T12:29:40.355808","MEAN_MOTION":15.27608182,"ECCENTRICITY":0.00014899,"INCLINATION":43.0001,"RA_OF_ASC_NODE":108.0642,"ARG_OF_PERICENTER":277.6546,"MEAN_ANOMALY":82.4136,"EPHEMERIS_TYPE":0,"CLASSIFICATION_TYPE":"U","NORAD_CAT_ID":63409,"ELEMENT_SET_NO":999,"REV_AT_EPOCH":5281,"BSTAR":0.0012444125,"MEAN_MOTION_DOT":0.0003417,"MEAN_MOTION_DDOT":0},{"OBJECT_NAME":"CZ-2C R\/B","OBJECT_ID":"2024-007B","EPOCH":"2026-03-09T13:33:21.523680","MEAN_MOTION":15.39758847,"ECCENTRICITY":0.00678111,"INCLINATION":29.0105,"RA_OF_ASC_NODE":269.6864,"ARG_OF_PERICENTER":313.7067,"MEAN_ANOMALY":45.794,"EPHEMERIS_TYPE":0,"CLASSIFICATION_TYPE":"U","NORAD_CAT_ID":58754,"ELEMENT_SET_NO":999,"REV_AT_EPOCH":12080,"BSTAR":0.0004050997,"MEAN_MOTION_DOT":0.00018271,"MEAN_MOTION_DDOT":0}]
